[{"OBJECT_NAME":"STARLINK-2468","OBJECT_ID":"2021-027AM","EPOCH":"2026-03-09T13:50:22.286112","MEAN_MOTION":15.30203375,"ECCENTRICITY":0.0001315,"INCLINATION":53.1616,"RA_OF_ASC_NODE":165.9301,"ARG_OF_PERICENTER":85.1213,"MEAN_ANOMALY":274.9938,"EPHEMERIS_TYPE":0,"CLASSIFICATION_TYPE":"U","NORAD_CAT_ID":48127,"ELEMENT_SET_NO":999,"REV_AT_EPOCH":27249,"BSTAR":0.00021037,"MEAN_MOTION_DOT":5.877e-5,"MEAN_MOTION_DDOT":0},{"OBJECT_NAME":"CONTECSAT-1","OBJECT_ID":"2024-043V","EPOCH":"2026-03-09T22:02:35.535840","MEAN_MOTION":15.34615346,"ECCENTRICITY":0.00100896,"INCLINATION":97.5476,"RA_OF_ASC_NODE":207.3735,"ARG_OF_PERICENTER":223.9905,"MEAN_ANOMALY":136.0535,"EPHEMERIS_TYPE":0,"CLASSIFICATION_TYPE":"U","NORAD_CAT_ID":59117,"ELEMENT_SET_NO":999,"REV_AT_EPOCH":11201,"BSTAR":0.0004369392,"MEAN_MOTION_DOT":0.00014607,"MEAN_MOTION_DDOT":0}]
